     2              NAVIGATION DATA                         RINEX VERSION / TYPE
CCRINEXN V1.6.0 UX  CDDIS               28-APR-16 15:33     PGM / RUN BY / DATE 
IGS BROADCAST EPHEMERIS FILE                                COMMENT             
    0.9313D-08  0.1490D-07 -0.5960D-07 -0.1192D-06          ION ALPHA           
    0.8806D+05  0.4915D+05 -0.1311D+06 -0.3277D+06          ION BETA            
   -0.186264514923D-08-0.621724893790D-14   405504     1894 DELTA-UTC: A0,A1,T,W
    17                                                      LEAP SECONDS        
                                                            END OF HEADER       
 8 16  4 27 20  0  0.0-0.330195762217D-04-0.147792889038D-11 0.000000000000D+00
    0.270000000000D+02-0.780000000000D+02 0.440196907397D-08 0.193365602998D+01
   -0.403448939323D-05 0.179272936657D-02 0.709109008312D-05 0.515368650818D+04
    0.331200000000D+06-0.186264514923D-07-0.271895063194D+01-0.577419996262D-07
    0.963156508272D+00 0.237656250000D+03-0.116464156160D+01-0.803783480808D-08
   -0.207865801302D-09 0.100000000000D+01 0.189400000000D+04 0.000000000000D+00
    0.200000000000D+01 0.000000000000D+00 0.465661287308D-08 0.270000000000D+02
    0.324156000000D+06 0.400000000000D+01 0.000000000000D+00 0.000000000000D+00
 9 16  4 27 20  0  0.0 0.118251424283D-03 0.738964445190D-11 0.000000000000D+00
    0.620000000000D+02 0.185937500000D+02 0.453661753976D-08 0.756394560218D+00
    0.101700425148D-05 0.609044684097D-03 0.893138349056D-05 0.515359414291D+04
    0.331200000000D+06-0.260770320892D-07 0.422213925008D+00 0.372529029846D-07
    0.955614864212D+00 0.202000000000D+03 0.214179694217D+01-0.800890503161D-08
   -0.200722646618D-09 0.100000000000D+01 0.189400000000D+04 0.000000000000D+00
    0.200000000000D+01 0.000000000000D+00 0.139698386192D-08 0.620000000000D+02
    0.324018000000D+06 0.400000000000D+01 0.000000000000D+00 0.000000000000D+00
10 16  4 27 20  0  0.0-0.875303521752D-05-0.943600753089D-11 0.000000000000D+00
    0.990000000000D+02 0.571875000000D+01 0.469269546960D-08 0.284008479273D+01
    0.419095158577D-06 0.143073173240D-02 0.675395131111D-05 0.515367798424D+04
    0.331200000000D+06-0.186264514923D-08-0.621208453928D+00-0.409781932831D-07
    0.959542705628D+00 0.248437500000D+03-0.274721622367D+01-0.806712174229D-08
    0.842892252703D-10 0.000000000000D+00 0.189400000000D+04 0.000000000000D+00
    0.280000000000D+01 0.000000000000D+00 0.232830643654D-08 0.990000000000D+02
    0.324000000000D+06 0.400000000000D+01 0.000000000000D+00 0.000000000000D+00
11 16  4 27 20  0  0.0-0.643976498395D-03-0.284217094304D-11 0.000000000000D+00
    0.104000000000D+03-0.284375000000D+02 0.579166981772D-08-0.173350018256D+01
   -0.138953328133D-05 0.162843074650D-01 0.895746052265D-05 0.515366151428D+04
    0.331200000000D+06 0.236555933952D-06-0.203381182993D+01 0.394880771637D-06
    0.896183988403D+00 0.169812500000D+03 0.151825967772D+01-0.851142596363D-08
    0.632169189527D-10 0.100000000000D+01 0.189400000000D+04 0.000000000000D+00
    0.280000000000D+01 0.000000000000D+00-0.121071934700D-07 0.104000000000D+03
    0.329430000000D+06 0.400000000000D+01 0.000000000000D+00 0.000000000000D+00
12 16  4 27 20  0  0.0 0.377808697522D-03 0.125055521494D-11 0.000000000000D+00
    0.440000000000D+02-0.130937500000D+02 0.421267547484D-08-0.236788734570D+01
   -0.596046447754D-06 0.611884787213D-02 0.318884849548D-05 0.515374385643D+04
    0.331200000000D+06 0.115483999252D-06 0.257617115573D+01-0.113621354103D-06
    0.990373925049D+00 0.332531250000D+03 0.725534298947D+00-0.809247994142D-08
    0.346443002170D-10 0.000000000000D+00 0.189400000000D+04 0.000000000000D+00
    0.200000000000D+01 0.000000000000D+00-0.125728547573D-07 0.440000000000D+02
    0.324000000000D+06 0.400000000000D+01 0.000000000000D+00 0.000000000000D+00
13 16  4 27 20  0  0.0-0.139325857162D-04-0.261479726760D-11 0.000000000000D+00
    0.620000000000D+02 0.313437500000D+02 0.419553190360D-08-0.916772063168D+00
    0.148825347424D-05 0.447737984359D-02 0.987760722637D-05 0.515368378448D+04
    0.331200000000D+06-0.242143869400D-07 0.542441477425D+00-0.558793544769D-07
    0.971995272053D+00 0.198187500000D+03 0.199517932044D+01-0.786211320286D-08
   -0.218223375594D-09 0.100000000000D+01 0.189400000000D+04 0.000000000000D+00
    0.200000000000D+01 0.000000000000D+00-0.111758708954D-07 0.620000000000D+02
    0.330378000000D+06 0.400000000000D+01 0.000000000000D+00 0.000000000000D+00
14 16  4 27 20  0  0.0-0.107423402369D-04-0.216004991671D-11 0.000000000000D+00
    0.320000000000D+02 0.197500000000D+02 0.440339770490D-08 0.851797988874D+00
    0.961124897003D-06 0.852587027475D-02 0.930204987526D-05 0.515400793266D+04
    0.331200000000D+06-0.135973095894D-06 0.505596879111D+00-0.167638063431D-07
    0.964498263087D+00 0.199906250000D+03-0.196472112172D+01-0.806212153401D-08
   -0.296440919383D-09 0.000000000000D+00 0.189400000000D+04 0.000000000000D+00
    0.200000000000D+01 0.000000000000D+00-0.931322574616D-08 0.320000000000D+02
    0.324000000000D+06 0.400000000000D+01 0.000000000000D+00 0.000000000000D+00
15 16  4 27 20  0  0.0-0.308395363390D-03-0.170530256582D-11 0.000000000000D+00
    0.230000000000D+02 0.119062500000D+02 0.519128766654D-08 0.141566665917D+00
    0.728294253349D-06 0.810782238841D-02 0.879168510437D-05 0.515357920265D+04
    0.331200000000D+06 0.115483999252D-06 0.370404309649D+00 0.931322574615D-07
    0.931360179850D+00 0.194843750000D+03 0.481043861865D+00-0.839713548868D-08
   -0.273225666660D-09 0.000000000000D+00 0.189400000000D+04 0.000000000000D+00
    0.200000000000D+01 0.000000000000D+00-0.107102096081D-07 0.230000000000D+02
    0.324000000000D+06 0.400000000000D+01 0.000000000000D+00 0.000000000000D+00
16 16  4 27 20  0  0.0-0.215079635382D-04 0.272848410532D-11 0.000000000000D+00
    0.130000000000D+02-0.122187500000D+02 0.416338770752D-08 0.187644913051D+01
   -0.497326254845D-06 0.876612600405D-02 0.399537384510D-05 0.515374792671D+04
    0.331200000000D+06-0.147148966789D-06 0.259493843438D+01 0.208616256714D-06
    0.990897379082D+00 0.321968750000D+03 0.369592150197D+00-0.805926427213D-08
   -0.821462788651D-10 0.100000000000D+01 0.189400000000D+04 0.000000000000D+00
    0.200000000000D+01 0.000000000000D+00-0.107102096081D-07 0.130000000000D+02
    0.328650000000D+06 0.400000000000D+01 0.000000000000D+00 0.000000000000D+00
17 16  4 27 20  0  0.0-0.203418079764D-03-0.341060513165D-12 0.000000000000D+00
    0.870000000000D+02-0.845625000000D+02 0.415445855495D-08 0.976583833105D+00
   -0.439956784248D-05 0.109662180767D-01 0.846572220325D-05 0.515368250275D+04
    0.331200000000D+06-0.176951289177D-06-0.266678407188D+01 0.558793544769D-07
    0.976282972299D+00 0.230031250000D+03-0.193061113130D+01-0.804997846160D-08
   -0.241081460350D-09 0.100000000000D+01 0.189400000000D+04 0.000000000000D+00
    0.280000000000D+01 0.000000000000D+00-0.107102096081D-07 0.870000000000D+02
    0.324000000000D+06 0.000000000000D+00 0.000000000000D+00 0.000000000000D+00
18 16  4 27 20  0  0.0 0.509390607476D-03 0.420641299570D-11 0.000000000000D+00
    0.470000000000D+02-0.812500000000D+00 0.531343561164D-08 0.253396698002D+01
   -0.122934579849D-06 0.170699746814D-01 0.631809234619D-05 0.515367374039D+04
    0.331200000000D+06 0.165775418282D-06-0.649108972989D+00-0.165775418282D-06
    0.925004729748D+00 0.235468750000D+03-0.189286522916D+01-0.813426739632D-08
    0.646455498895D-10 0.000000000000D+00 0.189400000000D+04 0.000000000000D+00
    0.200000000000D+01 0.000000000000D+00-0.121071934700D-07 0.470000000000D+02
    0.324000000000D+06 0.400000000000D+01 0.000000000000D+00 0.000000000000D+00
19 16  4 27 20  0  0.0-0.525688286871D-03 0.000000000000D+00 0.000000000000D+00
    0.840000000000D+02-0.956875000000D+02 0.410159950448D-08-0.217411508030D+01
   -0.492297112942D-05 0.107698517386D-01 0.861473381519D-05 0.515362170219D+04
    0.331200000000D+06 0.162050127983D-06-0.261794821642D+01-0.484287738800D-07
    0.973358334270D+00 0.216812500000D+03 0.750517158098D+00-0.780175390957D-08
   -0.353586153412D-10 0.100000000000D+01 0.189400000000D+04 0.000000000000D+00
    0.200000000000D+01 0.000000000000D+00-0.149011611938D-07 0.840000000000D+02
    0.324000000000D+06 0.000000000000D+00 0.000000000000D+00 0.000000000000D+00
20 16  4 27 20  0  0.0 0.408699270338D-03 0.238742359215D-11 0.000000000000D+00
    0.820000000000D+02-0.687500000000D+00 0.543951229181D-08 0.192599522977D+00
    0.763684511185D-07 0.463769386988D-02 0.643171370029D-05 0.515371904182D+04
    0.331200000000D+06-0.156462192535D-06-0.700971755179D+00-0.745058059692D-08
    0.926227338664D+00 0.239125000000D+03 0.136233825835D+01-0.849821112746D-08
    0.771460705863D-10 0.000000000000D+00 0.189400000000D+04 0.000000000000D+00
    0.200000000000D+01 0.000000000000D+00-0.838190317154D-08 0.820000000000D+02
    0.324000000000D+06 0.400000000000D+01 0.000000000000D+00 0.000000000000D+00
21 16  4 27 20  0  0.0-0.520673580468D-03-0.136424205266D-11 0.000000000000D+00
    0.540000000000D+02-0.208437500000D+02 0.478269921862D-08-0.287530024012D+01
   -0.113621354103D-05 0.233723936835D-01 0.890716910362D-05 0.515362949944D+04
    0.331200000000D+06 0.342726707459D-06-0.169152964510D+01-0.502914190292D-07
    0.935826933954D+00 0.188937500000D+03-0.179828937034D+01-0.774139388870D-08
    0.341799951626D-09 0.000000000000D+00 0.189400000000D+04 0.000000000000D+00
    0.200000000000D+01 0.000000000000D+00-0.102445483208D-07 0.540000000000D+02
    0.324000000000D+06 0.400000000000D+01 0.000000000000D+00 0.000000000000D+00
